{"type": "FeatureCollection", "features": [ {"type": "Feature", "properties": {"norad_id": 30396, "name": "FENGYUN 1C DEB", "group": "fengyun-1c-debris", "lat": 21.639331993299262, "lon": -5.39664761835729, "alt_km": 933.3833875108248, "timestamp": "2025-12-19T22:41:52.668287+00:00", "meta": {"OBJECT_NAME": "FENGYUN 1C DEB", "OBJECT_ID": "1999-025ADK", "EPOCH": "2025-12-19T11:12:57.953088", "MEAN_MOTION": 13.87170834, "ECCENTRICITY": 0.0135188, "INCLINATION": 98.2238, "RA_OF_ASC_NODE": 357.4711, "ARG_OF_PERICENTER": 111.2395, "MEAN_ANOMALY": 44.5147, "EPHEMERIS_TYPE": 0, "CLASSIFICATION_TYPE": "U", "NORAD_CAT_ID": 30396, "ELEMENT_SET_NO": 999, "REV_AT_EPOCH": 95672, "BSTAR": 9.4831e-05, "MEAN_MOTION_DOT": 8.5e-07, "MEAN_MOTION_DDOT": 0}, "tle": {"line1": "1 30396U 99025ADK 25353.46733742  .00000085  00000+0  94831-4 0  9991", "line2": "2 30396  98.2238 357.4711 0135188 111.2395  44.5147 13.87170834956727"}}, "geometry": {"type": "Point", "coordinates": [-5.39664761835729, 21.639331993299262]}}, {"type": "Feature", "properties": {"norad_id": 30397, "name": "FENGYUN 1C DEB", "group": "fengyun-1c-debris", "lat": -26.540578646099483, "lon": -42.679787875149295, "alt_km": 979.570507194062, "timestamp": "2025-12-19T22:41:52.668307+00:00", "meta": {"OBJECT_NAME": "FENGYUN 1C DEB", "OBJECT_ID": "1999-025ADL", "EPOCH": "2025-12-18T22:14:56.295744", "MEAN_MOTION": 13.98606163, "ECCENTRICITY": 0.01496047, "INCLINATION": 98.405, "RA_OF_ASC_NODE": 140.6207, "ARG_OF_PERICENTER": 75.2174, "MEAN_ANOMALY": 43.9683, "EPHEMERIS_TYPE": 0, "CLASSIFICATION_TYPE": "U", "NORAD_CAT_ID": 30397, "ELEMENT_SET_NO": 999, "REV_AT_EPOCH": 95851, "BSTAR": 0.00086992731, "MEAN_MOTION_DOT": 1.336e-05, "MEAN_MOTION_DDOT": 0}, "tle": {"line1": "1 30397U 99025ADL 25352.92704046  .00001336  00000+0  86993-3 0  9996", "line2": "2 30397  98.4050 140.6207 0149604  75.2174  43.9683 13.98606163958514"}}, "geometry": {"type": "Point", "coordinates": [-42.679787875149295, -26.540578646099483]}}, {"type": "Feature", "properties": {"norad_id": 30398, "name": "FENGYUN 1C DEB", "group": "fengyun-1c-debris", "lat": 70.45285779563334, "lon": 99.49258889172602, "alt_km": 1086.4820574155392, "timestamp": "2025-12-19T22:41:52.668326+00:00", "meta": {"OBJECT_NAME": "FENGYUN 1C DEB", "OBJECT_ID": "1999-025ADM", "EPOCH": "2025-12-19T17:03:56.542176", "MEAN_MOTION": 13.78704658, "ECCENTRICITY": 0.0172545, "INCLINATION": 99.7144, "RA_OF_ASC_NODE": 250.4057, "ARG_OF_PERICENTER": 277.8534, "MEAN_ANOMALY": 105.3265, "EPHEMERIS_TYPE": 0, "CLASSIFICATION_TYPE": "U", "NORAD_CAT_ID": 30398, "ELEMENT_SET_NO": 999, "REV_AT_EPOCH": 94853, "BSTAR": 0.00034306, "MEAN_MOTION_DOT": 3.41e-06, "MEAN_MOTION_DDOT": 0}, "tle": {"line1": "1 30398U 99025ADM 25353.71107109  .00000341  00000+0  34306-3 0  9998", "line2": "2 30398  99.7144 250.4057 0172545 277.8534 105.3265 13.78704658948532"}}, "geometry": {"type": "Point", "coordinates": [99.49258889172602, 70.45285779563334]}}, {"type": "Feature", "properties": {"norad_id": 30400, "name": "FENGYUN 1C DEB", "group": "fengyun-1c-debris", "lat": 25.998241029536658, "lon": -82.90926807935664, "alt_km": 800.3612686850784, "timestamp": "2025-12-19T22:41:52.668348+00:00", "meta": {"OBJECT_NAME": "FENGYUN 1C DEB", "OBJECT_ID": "1999-025ADP", "EPOCH": "2025-12-19T06:17:37.771872", "MEAN_MOTION": 14.1008194, "ECCENTRICITY": 0.0226457, "INCLINATION": 99.1564, "RA_OF_ASC_NODE": 280.9061, "ARG_OF_PERICENTER": 317.7733, "MEAN_ANOMALY": 198.4789, "EPHEMERIS_TYPE": 0, "CLASSIFICATION_TYPE": "U", "NORAD_CAT_ID": 30400, "ELEMENT_SET_NO": 999, "REV_AT_EPOCH": 95606, "BSTAR": 0.0028807, "MEAN_MOTION_DOT": 6.417e-05, "MEAN_MOTION_DDOT": 0}, "tle": {"line1": "1 30400U 99025ADP 25353.26224273  .00006417  00000+0  28807-2 0  9992", "line2": "2 30400  99.1564 280.9061 0226457 317.7733 198.4789 14.10081940956066"}}, "geometry": {"type": "Point", "coordinates": [-82.90926807935664, 25.998241029536658]}}, {"type": "Feature", "properties": {"norad_id": 30401, "name": "FENGYUN 1C DEB", "group": "fengyun-1c-debris", "lat": 27.063095295859107, "lon": 55.628412924223554, "alt_km": 742.7455498072277, "timestamp": "2025-12-19T22:41:52.668370+00:00", "meta": {"OBJECT_NAME": "FENGYUN 1C DEB", "OBJECT_ID": "1999-025ADQ", "EPOCH": "2025-12-19T10:13:28.314624", "MEAN_MOTION": 14.27996243, "ECCENTRICITY": 0.0108057, "INCLINATION": 98.947, "RA_OF_ASC_NODE": 230.4795, "ARG_OF_PERICENTER": 108.2517, "MEAN_ANOMALY": 253.0458, "EPHEMERIS_TYPE": 0, "CLASSIFICATION_TYPE": "U", "NORAD_CAT_ID": 30401, "ELEMENT_SET_NO": 999, "REV_AT_EPOCH": 98399, "BSTAR": 0.00010796, "MEAN_MOTION_DOT": 2.39e-06, "MEAN_MOTION_DDOT": 0}, "tle": {"line1": "1 30401U 99025ADQ 25353.42602216  .00000239  00000+0  10796-3 0  9993", "line2": "2 30401  98.9470 230.4795 0108057 108.2517 253.0458 14.27996243983994"}}, "geometry": {"type": "Point", "coordinates": [55.628412924223554, 27.063095295859107]}}, {"type": "Feature", "properties": {"norad_id": 30403, "name": "FENGYUN 1C DEB", "group": "fengyun-1c-debris", "lat": 23.289840345049335, "lon": -103.50133356232044, "alt_km": 867.7408421627861, "timestamp": "2025-12-19T22:41:52.668399+00:00", "meta": {"OBJECT_NAME": "FENGYUN 1C DEB", "OBJECT_ID": "1999-025ADS", "EPOCH": "2025-12-19T05:04:30.462816", "MEAN_MOTION": 14.21580922, "ECCENTRICITY": 0.0074439, "INCLINATION": 99.0599, "RA_OF_ASC_NODE": 71.8069, "ARG_OF_PERICENTER": 3.9438, "MEAN_ANOMALY": 356.2309, "EPHEMERIS_TYPE": 0, "CLASSIFICATION_TYPE": "U", "NORAD_CAT_ID": 30403, "ELEMENT_SET_NO": 999, "REV_AT_EPOCH": 96898, "BSTAR": 0.0013831, "MEAN_MOTION_DOT": 3.072e-05, "MEAN_MOTION_DDOT": 0}, "tle": {"line1": "1 30403U 99025ADS 25353.21146369  .00003072  00000+0  13831-2 0  9994", "line2": "2 30403  99.0599  71.8069 0074439   3.9438 356.2309 14.21580922968980"}}, "geometry": {"type": "Point", "coordinates": [-103.50133356232044, 23.289840345049335]}}, {"type": "Feature", "properties": {"norad_id": 30404, "name": "FENGYUN 1C DEB", "group": "fengyun-1c-debris", "lat": 56.77039668446046, "lon": -79.19795103694636, "alt_km": 842.6705814025563, "timestamp": "2025-12-19T22:41:52.668419+00:00", "meta": {"OBJECT_NAME": "FENGYUN 1C DEB", "OBJECT_ID": "1999-025ADT", "EPOCH": "2025-12-17T23:19:14.979360", "MEAN_MOTION": 13.34352849, "ECCENTRICITY": 0.03760541, "INCLINATION": 99.8325, "RA_OF_ASC_NODE": 83.5521, "ARG_OF_PERICENTER": 124.0977, "MEAN_ANOMALY": 239.6433, "EPHEMERIS_TYPE": 0, "CLASSIFICATION_TYPE": "U", "NORAD_CAT_ID": 30404, "ELEMENT_SET_NO": 999, "REV_AT_EPOCH": 58106, "BSTAR": 0.00066841715, "MEAN_MOTION_DOT": 4.58e-06, "MEAN_MOTION_DDOT": 0}, "tle": {"line1": "1 30404U 99025ADT 25351.97170115  .00000458  00000+0  66842-3 0  9998", "line2": "2 30404  99.8325  83.5521 0376054 124.0977 239.6433 13.34352849581060"}}, "geometry": {"type": "Point", "coordinates": [-79.19795103694636, 56.77039668446046]}}, {"type": "Feature", "properties": {"norad_id": 30405, "name": "FENGYUN 1C DEB", "group": "fengyun-1c-debris", "lat": 15.112778177715342, "lon": -89.61181627414375, "alt_km": 764.512192366531, "timestamp": "2025-12-19T22:41:52.668438+00:00", "meta": {"OBJECT_NAME": "FENGYUN 1C DEB", "OBJECT_ID": "1999-025ADU", "EPOCH": "2025-12-19T12:27:05.508000", "MEAN_MOTION": 14.28970081, "ECCENTRICITY": 0.005115, "INCLINATION": 98.7942, "RA_OF_ASC_NODE": 87.5617, "ARG_OF_PERICENTER": 134.5749, "MEAN_ANOMALY": 354.6796, "EPHEMERIS_TYPE": 0, "CLASSIFICATION_TYPE": "U", "NORAD_CAT_ID": 30405, "ELEMENT_SET_NO": 999, "REV_AT_EPOCH": 97492, "BSTAR": 0.0011351, "MEAN_MOTION_DOT": 2.866e-05, "MEAN_MOTION_DDOT": 0}, "tle": {"line1": "1 30405U 99025ADU 25353.51881375  .00002866  00000+0  11351-2 0  9997", "line2": "2 30405  98.7942  87.5617 0051150 134.5749 354.6796 14.28970081974923"}}, "geometry": {"type": "Point", "coordinates": [-89.61181627414375, 15.112778177715342]}}, {"type": "Feature", "properties": {"norad_id": 30406, "name": "FENGYUN 1C DEB", "group": "fengyun-1c-debris", "lat": 57.05641720459539, "lon": 77.29309543710465, "alt_km": 1192.9239831393952, "timestamp": "2025-12-19T22:41:52.668481+00:00", "meta": {"OBJECT_NAME": "FENGYUN 1C DEB", "OBJECT_ID": "1999-025ADV", "EPOCH": "2025-12-19T10:36:39.492000", "MEAN_MOTION": 13.59238767, "ECCENTRICITY": 0.0283134, "INCLINATION": 98.621, "RA_OF_ASC_NODE": 243.3105, "ARG_OF_PERICENTER": 342.5127, "MEAN_ANOMALY": 194.2074, "EPHEMERIS_TYPE": 0, "CLASSIFICATION_TYPE": "U", "NORAD_CAT_ID": 30406, "ELEMENT_SET_NO": 999, "REV_AT_EPOCH": 93257, "BSTAR": 0.0016837, "MEAN_MOTION_DOT": 1.577e-05, "MEAN_MOTION_DDOT": 0}, "tle": {"line1": "1 30406U 99025ADV 25353.44212375  .00001577  00000+0  16837-2 0  9990", "line2": "2 30406  98.6210 243.3105 0283134 342.5127 194.2074 13.59238767932578"}}, "geometry": {"type": "Point", "coordinates": [77.29309543710465, 57.05641720459539]}}, {"type": "Feature", "properties": {"norad_id": 30409, "name": "FENGYUN 1C DEB", "group": "fengyun-1c-debris", "lat": -65.22599882175359, "lon": -0.30879772563385705, "alt_km": 811.6192492778318, "timestamp": "2025-12-19T22:41:52.668503+00:00", "meta": {"OBJECT_NAME": "FENGYUN 1C DEB", "OBJECT_ID": "1999-025ADY", "EPOCH": "2025-12-19T11:35:21.770304", "MEAN_MOTION": 14.03754425, "ECCENTRICITY": 0.0167724, "INCLINATION": 98.4735, "RA_OF_ASC_NODE": 340.4147, "ARG_OF_PERICENTER": 346.6168, "MEAN_ANOMALY": 130.5476, "EPHEMERIS_TYPE": 0, "CLASSIFICATION_TYPE": "U", "NORAD_CAT_ID": 30409, "ELEMENT_SET_NO": 999, "REV_AT_EPOCH": 96524, "BSTAR": 0.00069095, "MEAN_MOTION_DOT": 1.191e-05, "MEAN_MOTION_DDOT": 0}, "tle": {"line1": "1 30409U 99025ADY 25353.48289086  .00001191  00000+0  69095-3 0  9997", "line2": "2 30409  98.4735 340.4147 0167724 346.6168 130.5476 14.03754425965245"}}, "geometry": {"type": "Point", "coordinates": [-0.30879772563385705, -65.22599882175359]}}]}